IRIDIUM 155             
1 43573U 18061E   22317.32340298  .00000338  00000+0  11364-3 0  9995
2 43573  86.3983 244.8702 0002040  75.5678 284.5744 14.34216406225321
IRIDIUM 154             
1 43574U 18061F   22317.51368056  .00000273  00000+0  90605-4 0  9993
2 43574  86.3989 244.8611 0002388  86.5003 273.6465 14.34213468225409
IRIDIUM 163             
1 43575U 18061G   22317.35512210  .00000302  00000+0  10089-3 0  9999
2 43575  86.3986 244.8830 0001971  93.1597 266.9824 14.34218812225355
IRIDIUM 156             
1 43576U 18061H   22317.32975733  .00000302  00000+0  10086-3 0  9997
2 43576  86.3986 244.8992 0001802  84.1379 276.0023 14.34216607225348
IRIDIUM 164             
1 43577U 18061J   22317.52001784  .00000329  00000+0  11044-3 0  9990
2 43577  86.3986 244.8400 0002284  88.8005 271.3452 14.34216505225414
IRIDIUM 159             
1 43578U 18061K   22317.34876233  .00000278  00000+0  92085-4 0  9998
2 43578  86.3986 244.8761 0002294  86.4454 273.7004 14.34214296225355
IRIDIUM 180             
1 43922U 19002A   22317.13897475  .00000251  00000+0  82738-4 0  9990
2 43922  86.4014 181.9288 0002343  94.8534 265.2929 14.34219484200936
IRIDIUM 176             
1 43923U 19002B   22317.17833757  .00000698  00000+0  10690-3 0  9990
2 43923  86.6151 181.9517 0002272  85.4657 274.6820 14.72231179206217
IRIDIUM 168             
1 43924U 19002C   22317.13262992  .00000251  00000+0  82476-4 0  9991
2 43924  86.4017 181.9715 0002261  88.4167 271.7288 14.34219888200912
IRIDIUM 173             
1 43925U 19002D   22317.11994480  .00000251  00000+0  82447-4 0  9992
2 43925  86.4013 181.9194 0002195  89.8063 270.3384 14.34219105200909
IRIDIUM 169             
1 43926U 19002E   22317.22179902  .00000357  00000+0  11022-3 0  9996
2 43926  86.4284 213.4217 0004415  11.8038 348.3263 14.38612179201603
IRIDIUM 172             
1 43927U 19002F   22317.53220385  .00000257  00000+0  84831-4 0  9991
2 43927  86.3983 181.7551 0003490  69.5477 290.6093 14.34222099200968
IRIDIUM 175             
1 43928U 19002G   22317.37604417  .00000471  00000+0  70817-4 0  9993
2 43928  86.6153 181.7043 0002355  85.6138 274.5348 14.72240445206236
IRIDIUM 171             
1 43929U 19002H   22317.37364940  .00000249  00000+0  82021-4 0  9991
2 43929  86.4022 181.9779 0002297  88.5277 271.6182 14.34217327200935
IRIDIUM 170             
1 43930U 19002J   22317.11654763  .00000816  00000+0  12555-3 0  9994
2 43930  86.6151 181.9830 0002372  87.2125 272.9363 14.72247246206219
IRIDIUM 167             
1 43931U 19002K   22317.36730558  .00000267  00000+0  88410-4 0  9993
2 43931  86.4014 181.8310 0002331  92.5783 267.5679 14.34218584200936
